[{"OBJECT_NAME":"JILIN-1 GAOFEN 03D48","OBJECT_ID":"2022-167P","EPOCH":"2026-03-09T23:48:37.804608","MEAN_MOTION":15.32947339,"ECCENTRICITY":0.00075954,"INCLINATION":97.6781,"RA_OF_ASC_NODE":234.4968,"ARG_OF_PERICENTER":111.3084,"MEAN_ANOMALY":248.8969,"EPHEMERIS_TYPE":0,"CLASSIFICATION_TYPE":"U","NORAD_CAT_ID":54695,"ELEMENT_SET_NO":999,"REV_AT_EPOCH":18018,"BSTAR":0.00049677114,"MEAN_MOTION_DOT":0.00015755,"MEAN_MOTION_DDOT":0},{"OBJECT_NAME":"STARLINK-32519","OBJECT_ID":"2024-239S","EPOCH":"2026-03-09T12:40:44.467680","MEAN_MOTION":15.30178787,"ECCENTRICITY":0.00012899,"INCLINATION":53.1576,"RA_OF_ASC_NODE":181.5663,"ARG_OF_PERICENTER":53.2355,"MEAN_ANOMALY":306.8764,"EPHEMERIS_TYPE":0,"CLASSIFICATION_TYPE":"U","NORAD_CAT_ID":62317,"ELEMENT_SET_NO":999,"REV_AT_EPOCH":6954,"BSTAR":0.001246621,"MEAN_MOTION_DOT":0.00036721,"MEAN_MOTION_DDOT":0}]
